[
    {
        "Altitude(m)": 617710.6603932937,
        "Argument of Periapsis(deg)": 0.0,
        "Eccentricity": 0.0,
        "Inclination(deg)": 60.0,
        "Latitude(deg)": -41.1027162686887,
        "Longitude(deg)": 14.966750994840597,
        "Mean Anomaly(deg)": -49.09089999999992,
        "RAAN(deg)": 145.0,
        "Satellite Name": "Test1 657",
        "Satellite Number": 657,
        "Semi-Major Axis(m)": 6980739.136638005,
        "Time(s)": 0
    },
    {
        "Altitude(m)": 617517.9583900498,
        "Argument of Periapsis(deg)": 0.00010418945913296404,
        "Eccentricity": 0.0,
        "Inclination(deg)": 60.0,
        "Latitude(deg)": -40.63692201575893,
        "Longitude(deg)": 15.463543040758974,
        "Mean Anomaly(deg)": -48.470793854538066,
        "RAAN(deg)": 144.99957995086027,
        "Satellite Name": "Test1 657",
        "Satellite Number": 657,
        "Semi-Major Axis(m)": 6980739.136638005,
        "Time(s)": 10
    }
]